0 CZ-4 DEB
1 26191U 99057CD  13281.83433874  .00000770  00000-0  25505-3 0  4409
2 26191 098.4173 235.2147 0102103 231.2761 196.9297 14.37796908710247
0 CZ-4 DEB
1 26191U 99057CD  13282.87782149  .00000809  00000-0  26722-3 0  4412
2 26191 098.4174 236.2370 0102135 228.1168 198.1064 14.37801205710397
0 CZ-4 DEB
1 26191U 99057CD  13284.12995493  .00000850  00000-0  27986-3 0  4420
2 26191 098.4177 237.4638 0102207 224.3452 199.2792 14.37803282710571
0 CZ-4 DEB
1 26191U 99057CD  13285.39350833  .00000717  00000-0  23837-3 0  4437
2 26191 098.4179 238.7016 0102246 220.5138 259.6008 14.37805897710754
0 CZ-4 DEB
1 26191U 99057CD  13286.43702309  .00000770  00000-0  25475-3 0  4442
2 26191 098.4181 239.7239 0102264 217.3827 260.9496 14.37807684710903
0 CZ-4 DEB
1 26191U 99057CD  13287.88817348  .00001289  00000-0  41685-3 0  4450
2 26191 098.4185 241.1455 0102348 213.0179 212.2852 14.37812066711110
0 CZ-4 DEB
1 26191U 99057CD  13289.14104435  .00001023  00000-0  33370-3 0  4466
2 26191 098.4189 242.3730 0102426 209.2386 217.3304 14.37815347711299
0 CZ-4 DEB
1 26191U 99057CD  13290.73870134  .00001059  00000-0  34488-3 0  4470
2 26191 098.4192 243.9383 0102523 204.4334 207.0471 14.37818718711524
0 CZ-4 DEB
1 26191U 99057CD  13291.85259941  .00001038  00000-0  33829-3 0  4487
2 26191 098.4194 245.0299 0102604 201.1066 212.7424 14.37820120711689
0 CZ-4 DEB
1 26191U 99057CD  13293.39808848  .00001136  00000-0  36884-3 0  4498
2 26191 098.4195 246.5442 0102707 196.4445 292.4737 14.37823620711902
0 CZ-4 DEB
1 26191U 99057CD  13294.43952440  .00001107  00000-0  35957-3 0  4502
2 26191 098.4196 247.5649 0102767 193.3203 283.1272 14.37826434712051
0 CZ-4 DEB
1 26191U 99057CD  13295.48371765  .00001159  00000-0  37591-3 0  4517
2 26191 098.4196 248.5883 0102845 190.1896 288.0605 14.37828841712207
